<?xml version="1.0" encoding="UTF-8"?>
<kml xmlns="http://www.opengis.net/kml/2.2" xmlns:gx="http://www.google.com/kml/ext/2.2">
    <Document id="1">
        <Style id="5">
            <IconStyle id="6">
                <colorMode>normal</colorMode>
                <scale>1.4604070192720358</scale>
                <heading>0</heading>
                <Icon id="7">
                    <href>https://i.imgur.com/qoXQjzD.png</href>
                </Icon>
            </IconStyle>
        </Style>
        <Style id="10">
            <IconStyle id="11">
                <colorMode>normal</colorMode>
                <scale>1.5822609884343037</scale>
                <heading>0</heading>
                <Icon id="12">
                    <href>https://i.imgur.com/qoXQjzD.png</href>
                </Icon>
            </IconStyle>
        </Style>
        <Style id="15">
            <IconStyle id="16">
                <colorMode>normal</colorMode>
                <scale>1.7800058518597943</scale>
                <heading>0</heading>
                <Icon id="17">
                    <href>https://i.imgur.com/qoXQjzD.png</href>
                </Icon>
            </IconStyle>
        </Style>
        <Style id="20">
            <IconStyle id="21">
                <colorMode>normal</colorMode>
                <scale>1.4707630658426463</scale>
                <heading>0</heading>
                <Icon id="22">
                    <href>https://i.imgur.com/qoXQjzD.png</href>
                </Icon>
            </IconStyle>
        </Style>
        <Style id="25">
            <IconStyle id="26">
                <colorMode>normal</colorMode>
                <scale>1.4618187429593954</scale>
                <heading>0</heading>
                <Icon id="27">
                    <href>https://i.imgur.com/qoXQjzD.png</href>
                </Icon>
            </IconStyle>
        </Style>
        <Style id="30">
            <IconStyle id="31">
                <colorMode>normal</colorMode>
                <scale>1.2612628908366301</scale>
                <heading>0</heading>
                <Icon id="32">
                    <href>https://i.imgur.com/qoXQjzD.png</href>
                </Icon>
            </IconStyle>
        </Style>
        <Style id="35">
            <IconStyle id="36">
                <colorMode>normal</colorMode>
                <scale>1.6419073933061923</scale>
                <heading>0</heading>
                <Icon id="37">
                    <href>https://i.imgur.com/qoXQjzD.png</href>
                </Icon>
            </IconStyle>
        </Style>
        <Style id="40">
            <IconStyle id="41">
                <colorMode>normal</colorMode>
                <scale>1.6188020893142077</scale>
                <heading>0</heading>
                <Icon id="42">
                    <href>https://i.imgur.com/qoXQjzD.png</href>
                </Icon>
            </IconStyle>
        </Style>
        <Style id="45">
            <IconStyle id="46">
                <colorMode>normal</colorMode>
                <scale>1.6198472613844306</scale>
                <heading>0</heading>
                <Icon id="47">
                    <href>https://i.imgur.com/qoXQjzD.png</href>
                </Icon>
            </IconStyle>
        </Style>
        <Style id="50">
            <IconStyle id="51">
                <colorMode>normal</colorMode>
                <scale>1.6273043047126934</scale>
                <heading>0</heading>
                <Icon id="52">
                    <href>https://i.imgur.com/qoXQjzD.png</href>
                </Icon>
            </IconStyle>
        </Style>
        <Style id="55">
            <IconStyle id="56">
                <colorMode>normal</colorMode>
                <scale>2.5</scale>
                <heading>0</heading>
                <Icon id="57">
                    <href>https://i.imgur.com/VJIrVJN.png</href>
                </Icon>
            </IconStyle>
        </Style>
        <Style id="60">
            <IconStyle id="62">
                <colorMode>normal</colorMode>
                <scale>0</scale>
                <heading>0</heading>
                <Icon id="63">
                    <href>http://maps.google.com/mapfiles/kml/pushpin/ylw-pushpin.png</href>
                </Icon>
            </IconStyle>
            <LabelStyle id="61">
                <colorMode>normal</colorMode>
                <scale>1.5</scale>
            </LabelStyle>
        </Style>
        <name>Mumbai Weather</name>
        <Camera>
            <longitude>72.834654</longitude>
            <latitude>18.921984</latitude>
            <altitude>4000</altitude>
            <heading>0</heading>
            <tilt>65</tilt>
            <roll>0</roll>
        </Camera>
        <Placemark id="4">
            <name>Rain</name>
            <styleUrl>#5</styleUrl>
            <Point id="3">
                <coordinates>72.86285656159914,18.910558644868438,0.0</coordinates>
            </Point>
        </Placemark>
        <Placemark id="9">
            <name>Rain</name>
            <styleUrl>#10</styleUrl>
            <Point id="8">
                <coordinates>72.83587838001297,18.914948754038434,0.0</coordinates>
            </Point>
        </Placemark>
        <Placemark id="14">
            <name>Rain</name>
            <styleUrl>#15</styleUrl>
            <Point id="13">
                <coordinates>72.82528112517386,18.911695562145418,0.0</coordinates>
            </Point>
        </Placemark>
        <Placemark id="19">
            <name>Rain</name>
            <styleUrl>#20</styleUrl>
            <Point id="18">
                <coordinates>72.82739591199275,18.934325032955826,0.0</coordinates>
            </Point>
        </Placemark>
        <Placemark id="24">
            <name>Rain</name>
            <styleUrl>#25</styleUrl>
            <Point id="23">
                <coordinates>72.84137619783681,18.932039164391565,0.0</coordinates>
            </Point>
        </Placemark>
        <Placemark id="29">
            <name>Rain</name>
            <styleUrl>#30</styleUrl>
            <Point id="28">
                <coordinates>72.8595458082025,18.932525698547447,0.0</coordinates>
            </Point>
        </Placemark>
        <Placemark id="34">
            <name>Rain</name>
            <styleUrl>#35</styleUrl>
            <Point id="33">
                <coordinates>72.83892345081725,18.92997905488344,0.0</coordinates>
            </Point>
        </Placemark>
        <Placemark id="39">
            <name>Rain</name>
            <styleUrl>#40</styleUrl>
            <Point id="38">
                <coordinates>72.81575878412244,18.941190653149455,0.0</coordinates>
            </Point>
        </Placemark>
        <Placemark id="44">
            <name>Rain</name>
            <styleUrl>#45</styleUrl>
            <Point id="43">
                <coordinates>72.81567218409646,18.907815133332903,0.0</coordinates>
            </Point>
        </Placemark>
        <Placemark id="49">
            <name>Rain</name>
            <styleUrl>#50</styleUrl>
            <Point id="48">
                <coordinates>72.85971292166148,18.9131170416405,0.0</coordinates>
            </Point>
        </Placemark>
        <Placemark id="54">
            <name>Low Pressure System</name>
            <styleUrl>#55</styleUrl>
            <Point id="53">
                <coordinates>72.65,18.95,0.0</coordinates>
            </Point>
        </Placemark>
        <Placemark id="59">
            <name>Large Low
Pressure
System</name>
            <styleUrl>#60</styleUrl>
            <Point id="58">
                <coordinates>72.67,18.92,0.0</coordinates>
            </Point>
        </Placemark>
    </Document>
</kml>
