<?xml version="1.0" encoding="UTF-8"?>
<kml xmlns="http://www.opengis.net/kml/2.2"
     xmlns:gx="http://www.google.com/kml/ext/2.2"
     xmlns:kml="http://www.opengis.net/kml/2.2"
     xmlns:atom="http://www.w3.org/2005/Atom">
<Document>
  <name>El Niño Guided Tour</name>
  <open>1</open>
  <gx:Tour>
    <name>El Niño Guided Tour</name>
    <gx:Playlist>

        <!-- Scientific Stop: Pacific Overview -->
        <gx:FlyTo>
          <gx:duration>11.0</gx:duration>
          <gx:flyToMode>smooth</gx:flyToMode>
          <LookAt>
            <longitude>-160.0</longitude>
            <latitude>0.0</latitude>
            <altitude>0.0</altitude>
            <heading>0.0</heading>
            <tilt>45.0</tilt>
            <range>12000000.0</range>
            <altitudeMode>relativeToGround</altitudeMode>
          </LookAt>
        </gx:FlyTo>

        <!-- Scientific Stop: Western Pacific Warm Pool & Indonesia Drought -->
        <gx:FlyTo>
          <gx:duration>9.0</gx:duration>
          <gx:flyToMode>smooth</gx:flyToMode>
          <LookAt>
            <longitude>120.0</longitude>
            <latitude>-3.0</latitude>
            <altitude>0.0</altitude>
            <heading>30.0</heading>
            <tilt>50.0</tilt>
            <range>3500000.0</range>
            <altitudeMode>relativeToGround</altitudeMode>
          </LookAt>
        </gx:FlyTo>

        <!-- Landmark Approach: Monas National Monument View (Jakarta, Indonesia) -->
        <gx:FlyTo>
          <gx:duration>3.0</gx:duration>
          <gx:flyToMode>smooth</gx:flyToMode>
          <Camera>
            <longitude>106.825000</longitude>
            <latitude>-6.177500</latitude>
            <altitude>120.0</altitude>
            <heading>46.2</heading>
            <tilt>80.0</tilt>
            <roll>0.0</roll>
            <altitudeMode>relativeToGround</altitudeMode>
          </Camera>
        </gx:FlyTo>

        <!-- Partial Orbit Keyframe 1/6: Monas National Monument View -->
        <gx:FlyTo>
          <gx:duration>2.5</gx:duration>
          <gx:flyToMode>smooth</gx:flyToMode>
          <Camera>
            <longitude>106.824410</longitude>
            <latitude>-6.176625</latitude>
            <altitude>120.0</altitude>
            <heading>66.2</heading>
            <tilt>80.0</tilt>
            <roll>0.0</roll>
            <altitudeMode>relativeToGround</altitudeMode>
          </Camera>
        </gx:FlyTo>

        <!-- Partial Orbit Keyframe 2/6: Monas National Monument View -->
        <gx:FlyTo>
          <gx:duration>2.5</gx:duration>
          <gx:flyToMode>smooth</gx:flyToMode>
          <Camera>
            <longitude>106.824157</longitude>
            <latitude>-6.175603</latitude>
            <altitude>120.0</altitude>
            <heading>86.2</heading>
            <tilt>80.0</tilt>
            <roll>0.0</roll>
            <altitudeMode>relativeToGround</altitudeMode>
          </Camera>
        </gx:FlyTo>

        <!-- Partial Orbit Keyframe 3/6: Monas National Monument View -->
        <gx:FlyTo>
          <gx:duration>2.5</gx:duration>
          <gx:flyToMode>smooth</gx:flyToMode>
          <Camera>
            <longitude>106.824271</longitude>
            <latitude>-6.174556</latitude>
            <altitude>120.0</altitude>
            <heading>106.2</heading>
            <tilt>80.0</tilt>
            <roll>0.0</roll>
            <altitudeMode>relativeToGround</altitudeMode>
          </Camera>
        </gx:FlyTo>

        <!-- Partial Orbit Keyframe 4/6: Monas National Monument View -->
        <gx:FlyTo>
          <gx:duration>2.5</gx:duration>
          <gx:flyToMode>smooth</gx:flyToMode>
          <Camera>
            <longitude>106.824738</longitude>
            <latitude>-6.173611</latitude>
            <altitude>120.0</altitude>
            <heading>126.2</heading>
            <tilt>80.0</tilt>
            <roll>0.0</roll>
            <altitudeMode>relativeToGround</altitudeMode>
          </Camera>
        </gx:FlyTo>

        <!-- Partial Orbit Keyframe 5/6: Monas National Monument View -->
        <gx:FlyTo>
          <gx:duration>2.5</gx:duration>
          <gx:flyToMode>smooth</gx:flyToMode>
          <Camera>
            <longitude>106.825502</longitude>
            <latitude>-6.172881</latitude>
            <altitude>120.0</altitude>
            <heading>146.2</heading>
            <tilt>80.0</tilt>
            <roll>0.0</roll>
            <altitudeMode>relativeToGround</altitudeMode>
          </Camera>
        </gx:FlyTo>

        <!-- Partial Orbit Keyframe 6/6: Monas National Monument View -->
        <gx:FlyTo>
          <gx:duration>2.5</gx:duration>
          <gx:flyToMode>smooth</gx:flyToMode>
          <Camera>
            <longitude>106.826471</longitude>
            <latitude>-6.172456</latitude>
            <altitude>120.0</altitude>
            <heading>166.2</heading>
            <tilt>80.0</tilt>
            <roll>0.0</roll>
            <altitudeMode>relativeToGround</altitudeMode>
          </Camera>
        </gx:FlyTo>

        <!-- Final Settle Hold: Monas National Monument View -->
        <gx:Wait>
          <gx:duration>3.0</gx:duration>
        </gx:Wait>

        <!-- Scientific Stop: Equatorial Pacific Heat Conveyor -->
        <gx:FlyTo>
          <gx:duration>11.0</gx:duration>
          <gx:flyToMode>smooth</gx:flyToMode>
          <LookAt>
            <longitude>-140.0</longitude>
            <latitude>0.0</latitude>
            <altitude>0.0</altitude>
            <heading>90.0</heading>
            <tilt>55.0</tilt>
            <range>5000000.0</range>
            <altitudeMode>relativeToGround</altitudeMode>
          </LookAt>
        </gx:FlyTo>

        <!-- Scientific Stop: Peru Upwelling & Coastal Flooding -->
        <gx:FlyTo>
          <gx:duration>9.0</gx:duration>
          <gx:flyToMode>smooth</gx:flyToMode>
          <LookAt>
            <longitude>-78.0</longitude>
            <latitude>-9.0</latitude>
            <altitude>0.0</altitude>
            <heading>45.0</heading>
            <tilt>60.0</tilt>
            <range>2500000.0</range>
            <altitudeMode>relativeToGround</altitudeMode>
          </LookAt>
        </gx:FlyTo>

        <!-- Landmark Approach: Plaza Mayor of Lima View (Lima, Peru) -->
        <gx:FlyTo>
          <gx:duration>3.0</gx:duration>
          <gx:flyToMode>smooth</gx:flyToMode>
          <Camera>
            <longitude>-77.032500</longitude>
            <latitude>-12.047000</latitude>
            <altitude>100.0</altitude>
            <heading>49.0</heading>
            <tilt>75.0</tilt>
            <roll>0.0</roll>
            <altitudeMode>relativeToGround</altitudeMode>
          </Camera>
        </gx:FlyTo>

        <!-- Partial Orbit Keyframe 1/6: Plaza Mayor of Lima View -->
        <gx:FlyTo>
          <gx:duration>2.5</gx:duration>
          <gx:flyToMode>smooth</gx:flyToMode>
          <Camera>
            <longitude>-77.032974</longitude>
            <latitude>-12.046228</latitude>
            <altitude>100.0</altitude>
            <heading>69.0</heading>
            <tilt>75.0</tilt>
            <roll>0.0</roll>
            <altitudeMode>relativeToGround</altitudeMode>
          </Camera>
        </gx:FlyTo>

        <!-- Partial Orbit Keyframe 2/6: Plaza Mayor of Lima View -->
        <gx:FlyTo>
          <gx:duration>2.5</gx:duration>
          <gx:flyToMode>smooth</gx:flyToMode>
          <Camera>
            <longitude>-77.033149</longitude>
            <latitude>-12.045345</latitude>
            <altitude>100.0</altitude>
            <heading>89.0</heading>
            <tilt>75.0</tilt>
            <roll>0.0</roll>
            <altitudeMode>relativeToGround</altitudeMode>
          </Camera>
        </gx:FlyTo>

        <!-- Partial Orbit Keyframe 3/6: Plaza Mayor of Lima View -->
        <gx:FlyTo>
          <gx:duration>2.5</gx:duration>
          <gx:flyToMode>smooth</gx:flyToMode>
          <Camera>
            <longitude>-77.033005</longitude>
            <latitude>-12.044456</latitude>
            <altitude>100.0</altitude>
            <heading>109.0</heading>
            <tilt>75.0</tilt>
            <roll>0.0</roll>
            <altitudeMode>relativeToGround</altitudeMode>
          </Camera>
        </gx:FlyTo>

        <!-- Partial Orbit Keyframe 4/6: Plaza Mayor of Lima View -->
        <gx:FlyTo>
          <gx:duration>2.5</gx:duration>
          <gx:flyToMode>smooth</gx:flyToMode>
          <Camera>
            <longitude>-77.032559</longitude>
            <latitude>-12.043669</latitude>
            <altitude>100.0</altitude>
            <heading>129.0</heading>
            <tilt>75.0</tilt>
            <roll>0.0</roll>
            <altitudeMode>relativeToGround</altitudeMode>
          </Camera>
        </gx:FlyTo>

        <!-- Partial Orbit Keyframe 5/6: Plaza Mayor of Lima View -->
        <gx:FlyTo>
          <gx:duration>2.5</gx:duration>
          <gx:flyToMode>smooth</gx:flyToMode>
          <Camera>
            <longitude>-77.031865</longitude>
            <latitude>-12.043079</latitude>
            <altitude>100.0</altitude>
            <heading>149.0</heading>
            <tilt>75.0</tilt>
            <roll>0.0</roll>
            <altitudeMode>relativeToGround</altitudeMode>
          </Camera>
        </gx:FlyTo>

        <!-- Partial Orbit Keyframe 6/6: Plaza Mayor of Lima View -->
        <gx:FlyTo>
          <gx:duration>2.5</gx:duration>
          <gx:flyToMode>smooth</gx:flyToMode>
          <Camera>
            <longitude>-77.031005</longitude>
            <latitude>-12.042756</latitude>
            <altitude>100.0</altitude>
            <heading>169.0</heading>
            <tilt>75.0</tilt>
            <roll>0.0</roll>
            <altitudeMode>relativeToGround</altitudeMode>
          </Camera>
        </gx:FlyTo>

        <!-- Final Settle Hold: Plaza Mayor of Lima View -->
        <gx:Wait>
          <gx:duration>3.0</gx:duration>
        </gx:Wait>

        <!-- Scientific Stop: North American Teleconnections -->
        <gx:FlyTo>
          <gx:duration>9.0</gx:duration>
          <gx:flyToMode>smooth</gx:flyToMode>
          <LookAt>
            <longitude>-105.0</longitude>
            <latitude>32.0</latitude>
            <altitude>0.0</altitude>
            <heading>0.0</heading>
            <tilt>45.0</tilt>
            <range>4500000.0</range>
            <altitudeMode>relativeToGround</altitudeMode>
          </LookAt>
        </gx:FlyTo>

        <!-- Landmark Approach: Golden Gate Bridge View (San Francisco, USA) -->
        <gx:FlyTo>
          <gx:duration>3.0</gx:duration>
          <gx:flyToMode>smooth</gx:flyToMode>
          <Camera>
            <longitude>-122.481500</longitude>
            <latitude>37.817000</latitude>
            <altitude>150.0</altitude>
            <heading>41.1</heading>
            <tilt>80.0</tilt>
            <roll>0.0</roll>
            <altitudeMode>relativeToGround</altitudeMode>
          </Camera>
        </gx:FlyTo>

        <!-- Partial Orbit Keyframe 1/6: Golden Gate Bridge View -->
        <gx:FlyTo>
          <gx:duration>2.5</gx:duration>
          <gx:flyToMode>smooth</gx:flyToMode>
          <Camera>
            <longitude>-122.482563</longitude>
            <latitude>37.818039</latitude>
            <altitude>150.0</altitude>
            <heading>61.1</heading>
            <tilt>80.0</tilt>
            <roll>0.0</roll>
            <altitudeMode>relativeToGround</altitudeMode>
          </Camera>
        </gx:FlyTo>

        <!-- Partial Orbit Keyframe 2/6: Golden Gate Bridge View -->
        <gx:FlyTo>
          <gx:duration>2.5</gx:duration>
          <gx:flyToMode>smooth</gx:flyToMode>
          <Camera>
            <longitude>-122.483111</longitude>
            <latitude>37.819303</latitude>
            <altitude>150.0</altitude>
            <heading>81.1</heading>
            <tilt>80.0</tilt>
            <roll>0.0</roll>
            <altitudeMode>relativeToGround</altitudeMode>
          </Camera>
        </gx:FlyTo>

        <!-- Partial Orbit Keyframe 3/6: Golden Gate Bridge View -->
        <gx:FlyTo>
          <gx:duration>2.5</gx:duration>
          <gx:flyToMode>smooth</gx:flyToMode>
          <Camera>
            <longitude>-122.483079</longitude>
            <latitude>37.820639</latitude>
            <altitude>150.0</altitude>
            <heading>101.1</heading>
            <tilt>80.0</tilt>
            <roll>0.0</roll>
            <altitudeMode>relativeToGround</altitudeMode>
          </Camera>
        </gx:FlyTo>

        <!-- Partial Orbit Keyframe 4/6: Golden Gate Bridge View -->
        <gx:FlyTo>
          <gx:duration>2.5</gx:duration>
          <gx:flyToMode>smooth</gx:flyToMode>
          <Camera>
            <longitude>-122.482471</longitude>
            <latitude>37.821886</latitude>
            <altitude>150.0</altitude>
            <heading>121.1</heading>
            <tilt>80.0</tilt>
            <roll>0.0</roll>
            <altitudeMode>relativeToGround</altitudeMode>
          </Camera>
        </gx:FlyTo>

        <!-- Partial Orbit Keyframe 5/6: Golden Gate Bridge View -->
        <gx:FlyTo>
          <gx:duration>2.5</gx:duration>
          <gx:flyToMode>smooth</gx:flyToMode>
          <Camera>
            <longitude>-122.481360</longitude>
            <latitude>37.822893</latitude>
            <altitude>150.0</altitude>
            <heading>141.1</heading>
            <tilt>80.0</tilt>
            <roll>0.0</roll>
            <altitudeMode>relativeToGround</altitudeMode>
          </Camera>
        </gx:FlyTo>

        <!-- Partial Orbit Keyframe 6/6: Golden Gate Bridge View -->
        <gx:FlyTo>
          <gx:duration>2.5</gx:duration>
          <gx:flyToMode>smooth</gx:flyToMode>
          <Camera>
            <longitude>-122.479879</longitude>
            <latitude>37.823539</latitude>
            <altitude>150.0</altitude>
            <heading>161.1</heading>
            <tilt>80.0</tilt>
            <roll>0.0</roll>
            <altitudeMode>relativeToGround</altitudeMode>
          </Camera>
        </gx:FlyTo>

        <!-- Final Settle Hold: Golden Gate Bridge View -->
        <gx:Wait>
          <gx:duration>3.0</gx:duration>
        </gx:Wait>

        <!-- Scientific Stop: Pacific Basin Conclusion -->
        <gx:FlyTo>
          <gx:duration>11.0</gx:duration>
          <gx:flyToMode>smooth</gx:flyToMode>
          <LookAt>
            <longitude>-160.0</longitude>
            <latitude>0.0</latitude>
            <altitude>0.0</altitude>
            <heading>0.0</heading>
            <tilt>45.0</tilt>
            <range>12000000.0</range>
            <altitudeMode>relativeToGround</altitudeMode>
          </LookAt>
        </gx:FlyTo>

    </gx:Playlist>
  </gx:Tour>
</Document>
</kml>
