<?xml version="1.0" encoding="UTF-8"?>
<kml xmlns="http://www.opengis.net/kml/2.2"
     xmlns:gx="http://www.google.com/kml/ext/2.2"
     xmlns:kml="http://www.opengis.net/kml/2.2"
     xmlns:atom="http://www.w3.org/2005/Atom">
<Document>
  <name>Gulf Stream Guided Tour</name>
  <open>1</open>
  <gx:Tour>
    <name>Gulf Stream Guided Tour</name>
    <gx:Playlist>

        <!-- Scientific Stop: North Atlantic Basin Overview -->
        <gx:FlyTo>
          <gx:duration>11.0</gx:duration>
          <gx:flyToMode>smooth</gx:flyToMode>
          <LookAt>
            <longitude>-45.0</longitude>
            <latitude>35.0</latitude>
            <altitude>0.0</altitude>
            <heading>0.0</heading>
            <tilt>45.0</tilt>
            <range>9000000.0</range>
            <altitudeMode>relativeToGround</altitudeMode>
          </LookAt>
        </gx:FlyTo>

        <!-- Scientific Stop: Gulf of Mexico & Florida Straits Origin -->
        <gx:FlyTo>
          <gx:duration>9.0</gx:duration>
          <gx:flyToMode>smooth</gx:flyToMode>
          <LookAt>
            <longitude>-83.0</longitude>
            <latitude>24.0</latitude>
            <altitude>0.0</altitude>
            <heading>45.0</heading>
            <tilt>55.0</tilt>
            <range>2000000.0</range>
            <altitudeMode>relativeToGround</altitudeMode>
          </LookAt>
        </gx:FlyTo>

        <!-- Landmark Approach: Freedom Tower Landmark View (Miami, USA) -->
        <gx:FlyTo>
          <gx:duration>3.0</gx:duration>
          <gx:flyToMode>smooth</gx:flyToMode>
          <Camera>
            <longitude>-80.187500</longitude>
            <latitude>25.776500</latitude>
            <altitude>110.0</altitude>
            <heading>311.6</heading>
            <tilt>75.0</tilt>
            <roll>0.0</roll>
            <altitudeMode>relativeToGround</altitudeMode>
          </Camera>
        </gx:FlyTo>

        <!-- Partial Orbit Keyframe 1/6: Freedom Tower Landmark View -->
        <gx:FlyTo>
          <gx:duration>2.5</gx:duration>
          <gx:flyToMode>smooth</gx:flyToMode>
          <Camera>
            <longitude>-80.188228</longitude>
            <latitude>25.775981</latitude>
            <altitude>110.0</altitude>
            <heading>331.6</heading>
            <tilt>75.0</tilt>
            <roll>0.0</roll>
            <altitudeMode>relativeToGround</altitudeMode>
          </Camera>
        </gx:FlyTo>

        <!-- Partial Orbit Keyframe 2/6: Freedom Tower Landmark View -->
        <gx:FlyTo>
          <gx:duration>2.5</gx:duration>
          <gx:flyToMode>smooth</gx:flyToMode>
          <Camera>
            <longitude>-80.189110</longitude>
            <latitude>25.775717</latitude>
            <altitude>110.0</altitude>
            <heading>351.6</heading>
            <tilt>75.0</tilt>
            <roll>0.0</roll>
            <altitudeMode>relativeToGround</altitudeMode>
          </Camera>
        </gx:FlyTo>

        <!-- Partial Orbit Keyframe 3/6: Freedom Tower Landmark View -->
        <gx:FlyTo>
          <gx:duration>2.5</gx:duration>
          <gx:flyToMode>smooth</gx:flyToMode>
          <Camera>
            <longitude>-80.190039</longitude>
            <latitude>25.775740</latitude>
            <altitude>110.0</altitude>
            <heading>11.6</heading>
            <tilt>75.0</tilt>
            <roll>0.0</roll>
            <altitudeMode>relativeToGround</altitudeMode>
          </Camera>
        </gx:FlyTo>

        <!-- Partial Orbit Keyframe 4/6: Freedom Tower Landmark View -->
        <gx:FlyTo>
          <gx:duration>2.5</gx:duration>
          <gx:flyToMode>smooth</gx:flyToMode>
          <Camera>
            <longitude>-80.190902</longitude>
            <latitude>25.776049</latitude>
            <altitude>110.0</altitude>
            <heading>31.6</heading>
            <tilt>75.0</tilt>
            <roll>0.0</roll>
            <altitudeMode>relativeToGround</altitudeMode>
          </Camera>
        </gx:FlyTo>

        <!-- Partial Orbit Keyframe 5/6: Freedom Tower Landmark View -->
        <gx:FlyTo>
          <gx:duration>2.5</gx:duration>
          <gx:flyToMode>smooth</gx:flyToMode>
          <Camera>
            <longitude>-80.191597</longitude>
            <latitude>25.776604</latitude>
            <altitude>110.0</altitude>
            <heading>51.6</heading>
            <tilt>75.0</tilt>
            <roll>0.0</roll>
            <altitudeMode>relativeToGround</altitudeMode>
          </Camera>
        </gx:FlyTo>

        <!-- Partial Orbit Keyframe 6/6: Freedom Tower Landmark View -->
        <gx:FlyTo>
          <gx:duration>2.5</gx:duration>
          <gx:flyToMode>smooth</gx:flyToMode>
          <Camera>
            <longitude>-80.192039</longitude>
            <latitude>25.777340</latitude>
            <altitude>110.0</altitude>
            <heading>71.6</heading>
            <tilt>75.0</tilt>
            <roll>0.0</roll>
            <altitudeMode>relativeToGround</altitudeMode>
          </Camera>
        </gx:FlyTo>

        <!-- Final Settle Hold: Freedom Tower Landmark View -->
        <gx:Wait>
          <gx:duration>3.0</gx:duration>
        </gx:Wait>

        <!-- Scientific Stop: Cape Hatteras Coastal Separation -->
        <gx:FlyTo>
          <gx:duration>9.0</gx:duration>
          <gx:flyToMode>smooth</gx:flyToMode>
          <LookAt>
            <longitude>-73.0</longitude>
            <latitude>35.0</latitude>
            <altitude>0.0</altitude>
            <heading>60.0</heading>
            <tilt>50.0</tilt>
            <range>2000000.0</range>
            <altitudeMode>relativeToGround</altitudeMode>
          </LookAt>
        </gx:FlyTo>

        <!-- Landmark Approach: Statue of Liberty Landmark View (New York City, USA) -->
        <gx:FlyTo>
          <gx:duration>3.0</gx:duration>
          <gx:flyToMode>smooth</gx:flyToMode>
          <Camera>
            <longitude>-74.046500</longitude>
            <latitude>40.687500</latitude>
            <altitude>80.0</altitude>
            <heading>41.7</heading>
            <tilt>80.0</tilt>
            <roll>0.0</roll>
            <altitudeMode>relativeToGround</altitudeMode>
          </Camera>
        </gx:FlyTo>

        <!-- Partial Orbit Keyframe 1/6: Statue of Liberty Landmark View -->
        <gx:FlyTo>
          <gx:duration>2.5</gx:duration>
          <gx:flyToMode>smooth</gx:flyToMode>
          <Camera>
            <longitude>-74.047146</longitude>
            <latitude>40.688121</latitude>
            <altitude>80.0</altitude>
            <heading>61.7</heading>
            <tilt>80.0</tilt>
            <roll>0.0</roll>
            <altitudeMode>relativeToGround</altitudeMode>
          </Camera>
        </gx:FlyTo>

        <!-- Partial Orbit Keyframe 2/6: Statue of Liberty Landmark View -->
        <gx:FlyTo>
          <gx:duration>2.5</gx:duration>
          <gx:flyToMode>smooth</gx:flyToMode>
          <Camera>
            <longitude>-74.047473</longitude>
            <latitude>40.688873</latitude>
            <altitude>80.0</altitude>
            <heading>81.7</heading>
            <tilt>80.0</tilt>
            <roll>0.0</roll>
            <altitudeMode>relativeToGround</altitudeMode>
          </Camera>
        </gx:FlyTo>

        <!-- Partial Orbit Keyframe 3/6: Statue of Liberty Landmark View -->
        <gx:FlyTo>
          <gx:duration>2.5</gx:duration>
          <gx:flyToMode>smooth</gx:flyToMode>
          <Camera>
            <longitude>-74.047442</longitude>
            <latitude>40.689663</latitude>
            <altitude>80.0</altitude>
            <heading>101.7</heading>
            <tilt>80.0</tilt>
            <roll>0.0</roll>
            <altitudeMode>relativeToGround</altitudeMode>
          </Camera>
        </gx:FlyTo>

        <!-- Partial Orbit Keyframe 4/6: Statue of Liberty Landmark View -->
        <gx:FlyTo>
          <gx:duration>2.5</gx:duration>
          <gx:flyToMode>smooth</gx:flyToMode>
          <Camera>
            <longitude>-74.047055</longitude>
            <latitude>40.690398</latitude>
            <altitude>80.0</altitude>
            <heading>121.7</heading>
            <tilt>80.0</tilt>
            <roll>0.0</roll>
            <altitudeMode>relativeToGround</altitudeMode>
          </Camera>
        </gx:FlyTo>

        <!-- Partial Orbit Keyframe 5/6: Statue of Liberty Landmark View -->
        <gx:FlyTo>
          <gx:duration>2.5</gx:duration>
          <gx:flyToMode>smooth</gx:flyToMode>
          <Camera>
            <longitude>-74.046361</longitude>
            <latitude>40.690989</latitude>
            <altitude>80.0</altitude>
            <heading>141.7</heading>
            <tilt>80.0</tilt>
            <roll>0.0</roll>
            <altitudeMode>relativeToGround</altitudeMode>
          </Camera>
        </gx:FlyTo>

        <!-- Partial Orbit Keyframe 6/6: Statue of Liberty Landmark View -->
        <gx:FlyTo>
          <gx:duration>2.5</gx:duration>
          <gx:flyToMode>smooth</gx:flyToMode>
          <Camera>
            <longitude>-74.045442</longitude>
            <latitude>40.691363</latitude>
            <altitude>80.0</altitude>
            <heading>161.7</heading>
            <tilt>80.0</tilt>
            <roll>0.0</roll>
            <altitudeMode>relativeToGround</altitudeMode>
          </Camera>
        </gx:FlyTo>

        <!-- Final Settle Hold: Statue of Liberty Landmark View -->
        <gx:Wait>
          <gx:duration>3.0</gx:duration>
        </gx:Wait>

        <!-- Scientific Stop: North Atlantic Drift Crossing -->
        <gx:FlyTo>
          <gx:duration>11.0</gx:duration>
          <gx:flyToMode>smooth</gx:flyToMode>
          <LookAt>
            <longitude>-35.0</longitude>
            <latitude>50.0</latitude>
            <altitude>0.0</altitude>
            <heading>75.0</heading>
            <tilt>55.0</tilt>
            <range>3500000.0</range>
            <altitudeMode>relativeToGround</altitudeMode>
          </LookAt>
        </gx:FlyTo>

        <!-- Scientific Stop: European Warming Drift to Norway -->
        <gx:FlyTo>
          <gx:duration>9.0</gx:duration>
          <gx:flyToMode>smooth</gx:flyToMode>
          <LookAt>
            <longitude>5.0</longitude>
            <latitude>60.0</latitude>
            <altitude>0.0</altitude>
            <heading>30.0</heading>
            <tilt>50.0</tilt>
            <range>2500000.0</range>
            <altitudeMode>relativeToGround</altitudeMode>
          </LookAt>
        </gx:FlyTo>

        <!-- Landmark Approach: Big Ben Landmark View (London, UK) -->
        <gx:FlyTo>
          <gx:duration>3.0</gx:duration>
          <gx:flyToMode>smooth</gx:flyToMode>
          <Camera>
            <longitude>-0.126500</longitude>
            <latitude>51.502000</latitude>
            <altitude>90.0</altitude>
            <heading>137.7</heading>
            <tilt>80.0</tilt>
            <roll>0.0</roll>
            <altitudeMode>relativeToGround</altitudeMode>
          </Camera>
        </gx:FlyTo>

        <!-- Partial Orbit Keyframe 1/6: Big Ben Landmark View -->
        <gx:FlyTo>
          <gx:duration>2.5</gx:duration>
          <gx:flyToMode>smooth</gx:flyToMode>
          <Camera>
            <longitude>-0.125671</longitude>
            <latitude>51.502326</latitude>
            <altitude>90.0</altitude>
            <heading>157.7</heading>
            <tilt>80.0</tilt>
            <roll>0.0</roll>
            <altitudeMode>relativeToGround</altitudeMode>
          </Camera>
        </gx:FlyTo>

        <!-- Partial Orbit Keyframe 2/6: Big Ben Landmark View -->
        <gx:FlyTo>
          <gx:duration>2.5</gx:duration>
          <gx:flyToMode>smooth</gx:flyToMode>
          <Camera>
            <longitude>-0.124713</longitude>
            <latitude>51.502456</latitude>
            <altitude>90.0</altitude>
            <heading>177.7</heading>
            <tilt>80.0</tilt>
            <roll>0.0</roll>
            <altitudeMode>relativeToGround</altitudeMode>
          </Camera>
        </gx:FlyTo>

        <!-- Partial Orbit Keyframe 3/6: Big Ben Landmark View -->
        <gx:FlyTo>
          <gx:duration>2.5</gx:duration>
          <gx:flyToMode>smooth</gx:flyToMode>
          <Camera>
            <longitude>-0.123741</longitude>
            <latitude>51.502374</latitude>
            <altitude>90.0</altitude>
            <heading>197.7</heading>
            <tilt>80.0</tilt>
            <roll>0.0</roll>
            <altitudeMode>relativeToGround</altitudeMode>
          </Camera>
        </gx:FlyTo>

        <!-- Partial Orbit Keyframe 4/6: Big Ben Landmark View -->
        <gx:FlyTo>
          <gx:duration>2.5</gx:duration>
          <gx:flyToMode>smooth</gx:flyToMode>
          <Camera>
            <longitude>-0.122873</longitude>
            <latitude>51.502090</latitude>
            <altitude>90.0</altitude>
            <heading>217.7</heading>
            <tilt>80.0</tilt>
            <roll>0.0</roll>
            <altitudeMode>relativeToGround</altitudeMode>
          </Camera>
        </gx:FlyTo>

        <!-- Partial Orbit Keyframe 5/6: Big Ben Landmark View -->
        <gx:FlyTo>
          <gx:duration>2.5</gx:duration>
          <gx:flyToMode>smooth</gx:flyToMode>
          <Camera>
            <longitude>-0.122213</longitude>
            <latitude>51.501639</latitude>
            <altitude>90.0</altitude>
            <heading>237.7</heading>
            <tilt>80.0</tilt>
            <roll>0.0</roll>
            <altitudeMode>relativeToGround</altitudeMode>
          </Camera>
        </gx:FlyTo>

        <!-- Partial Orbit Keyframe 6/6: Big Ben Landmark View -->
        <gx:FlyTo>
          <gx:duration>2.5</gx:duration>
          <gx:flyToMode>smooth</gx:flyToMode>
          <Camera>
            <longitude>-0.121841</longitude>
            <latitude>51.501074</latitude>
            <altitude>90.0</altitude>
            <heading>257.7</heading>
            <tilt>80.0</tilt>
            <roll>0.0</roll>
            <altitudeMode>relativeToGround</altitudeMode>
          </Camera>
        </gx:FlyTo>

        <!-- Final Settle Hold: Big Ben Landmark View -->
        <gx:Wait>
          <gx:duration>3.0</gx:duration>
        </gx:Wait>

        <!-- Scientific Stop: North Atlantic Basin Conclusion -->
        <gx:FlyTo>
          <gx:duration>11.0</gx:duration>
          <gx:flyToMode>smooth</gx:flyToMode>
          <LookAt>
            <longitude>-45.0</longitude>
            <latitude>35.0</latitude>
            <altitude>0.0</altitude>
            <heading>0.0</heading>
            <tilt>45.0</tilt>
            <range>9000000.0</range>
            <altitudeMode>relativeToGround</altitudeMode>
          </LookAt>
        </gx:FlyTo>

    </gx:Playlist>
  </gx:Tour>
</Document>
</kml>
