<?xml version="1.0" encoding="UTF-8"?>
<kml xmlns="http://www.opengis.net/kml/2.2"
     xmlns:gx="http://www.google.com/kml/ext/2.2"
     xmlns:kml="http://www.opengis.net/kml/2.2"
     xmlns:atom="http://www.w3.org/2005/Atom">
<Document>
  <name>Indian Monsoon Guided Tour</name>
  <open>1</open>
  <gx:Tour>
    <name>Indian Monsoon Guided Tour</name>
    <gx:Playlist>

        <!-- Scientific Stop: South Asian Monsoon Overview -->
        <gx:FlyTo>
          <gx:duration>11.0</gx:duration>
          <gx:flyToMode>smooth</gx:flyToMode>
          <LookAt>
            <longitude>78.0</longitude>
            <latitude>20.0</latitude>
            <altitude>0.0</altitude>
            <heading>0.0</heading>
            <tilt>45.0</tilt>
            <range>5000000.0</range>
            <altitudeMode>relativeToGround</altitudeMode>
          </LookAt>
        </gx:FlyTo>

        <!-- Scientific Stop: Arabian Sea Branch & Western Ghats -->
        <gx:FlyTo>
          <gx:duration>10.0</gx:duration>
          <gx:flyToMode>smooth</gx:flyToMode>
          <LookAt>
            <longitude>70.0</longitude>
            <latitude>14.0</latitude>
            <altitude>0.0</altitude>
            <heading>45.0</heading>
            <tilt>55.0</tilt>
            <range>2200000.0</range>
            <altitudeMode>relativeToGround</altitudeMode>
          </LookAt>
        </gx:FlyTo>

        <!-- Landmark Approach: Gateway of India Landmark View (Mumbai, India) -->
        <gx:FlyTo>
          <gx:duration>3.0</gx:duration>
          <gx:flyToMode>smooth</gx:flyToMode>
          <Camera>
            <longitude>72.832500</longitude>
            <latitude>18.922000</latitude>
            <altitude>70.0</altitude>
            <heading>90.0</heading>
            <tilt>80.0</tilt>
            <roll>0.0</roll>
            <altitudeMode>relativeToGround</altitudeMode>
          </Camera>
        </gx:FlyTo>

        <!-- Partial Orbit Keyframe 1/6: Gateway of India Landmark View -->
        <gx:FlyTo>
          <gx:duration>2.5</gx:duration>
          <gx:flyToMode>smooth</gx:flyToMode>
          <Camera>
            <longitude>72.832633</longitude>
            <latitude>18.922712</latitude>
            <altitude>70.0</altitude>
            <heading>110.0</heading>
            <tilt>80.0</tilt>
            <roll>0.0</roll>
            <altitudeMode>relativeToGround</altitudeMode>
          </Camera>
        </gx:FlyTo>

        <!-- Partial Orbit Keyframe 2/6: Gateway of India Landmark View -->
        <gx:FlyTo>
          <gx:duration>2.5</gx:duration>
          <gx:flyToMode>smooth</gx:flyToMode>
          <Camera>
            <longitude>72.833015</longitude>
            <latitude>18.923338</latitude>
            <altitude>70.0</altitude>
            <heading>130.0</heading>
            <tilt>80.0</tilt>
            <roll>0.0</roll>
            <altitudeMode>relativeToGround</altitudeMode>
          </Camera>
        </gx:FlyTo>

        <!-- Partial Orbit Keyframe 3/6: Gateway of India Landmark View -->
        <gx:FlyTo>
          <gx:duration>2.5</gx:duration>
          <gx:flyToMode>smooth</gx:flyToMode>
          <Camera>
            <longitude>72.833600</longitude>
            <latitude>18.923802</latitude>
            <altitude>70.0</altitude>
            <heading>150.0</heading>
            <tilt>80.0</tilt>
            <roll>0.0</roll>
            <altitudeMode>relativeToGround</altitudeMode>
          </Camera>
        </gx:FlyTo>

        <!-- Partial Orbit Keyframe 4/6: Gateway of India Landmark View -->
        <gx:FlyTo>
          <gx:duration>2.5</gx:duration>
          <gx:flyToMode>smooth</gx:flyToMode>
          <Camera>
            <longitude>72.834318</longitude>
            <latitude>18.924049</latitude>
            <altitude>70.0</altitude>
            <heading>170.0</heading>
            <tilt>80.0</tilt>
            <roll>0.0</roll>
            <altitudeMode>relativeToGround</altitudeMode>
          </Camera>
        </gx:FlyTo>

        <!-- Partial Orbit Keyframe 5/6: Gateway of India Landmark View -->
        <gx:FlyTo>
          <gx:duration>2.5</gx:duration>
          <gx:flyToMode>smooth</gx:flyToMode>
          <Camera>
            <longitude>72.835082</longitude>
            <latitude>18.924049</latitude>
            <altitude>70.0</altitude>
            <heading>190.0</heading>
            <tilt>80.0</tilt>
            <roll>0.0</roll>
            <altitudeMode>relativeToGround</altitudeMode>
          </Camera>
        </gx:FlyTo>

        <!-- Partial Orbit Keyframe 6/6: Gateway of India Landmark View -->
        <gx:FlyTo>
          <gx:duration>2.5</gx:duration>
          <gx:flyToMode>smooth</gx:flyToMode>
          <Camera>
            <longitude>72.835800</longitude>
            <latitude>18.923802</latitude>
            <altitude>70.0</altitude>
            <heading>210.0</heading>
            <tilt>80.0</tilt>
            <roll>0.0</roll>
            <altitudeMode>relativeToGround</altitudeMode>
          </Camera>
        </gx:FlyTo>

        <!-- Final Settle Hold: Gateway of India Landmark View -->
        <gx:Wait>
          <gx:duration>3.0</gx:duration>
        </gx:Wait>

        <!-- Scientific Stop: Bay of Bengal Branch Inflow -->
        <gx:FlyTo>
          <gx:duration>10.0</gx:duration>
          <gx:flyToMode>smooth</gx:flyToMode>
          <LookAt>
            <longitude>88.0</longitude>
            <latitude>16.0</latitude>
            <altitude>0.0</altitude>
            <heading>15.0</heading>
            <tilt>50.0</tilt>
            <range>2500000.0</range>
            <altitudeMode>relativeToGround</altitudeMode>
          </LookAt>
        </gx:FlyTo>

        <!-- Scientific Stop: Northeast India & Cherrapunji Heavy Rain -->
        <gx:FlyTo>
          <gx:duration>9.0</gx:duration>
          <gx:flyToMode>smooth</gx:flyToMode>
          <LookAt>
            <longitude>91.5</longitude>
            <latitude>25.5</latitude>
            <altitude>0.0</altitude>
            <heading>315.0</heading>
            <tilt>60.0</tilt>
            <range>1800000.0</range>
            <altitudeMode>relativeToGround</altitudeMode>
          </LookAt>
        </gx:FlyTo>

        <!-- Scientific Stop: Gangetic Plain Monsoon Trough & Low Pressure -->
        <gx:FlyTo>
          <gx:duration>9.0</gx:duration>
          <gx:flyToMode>smooth</gx:flyToMode>
          <LookAt>
            <longitude>76.0</longitude>
            <latitude>27.0</latitude>
            <altitude>0.0</altitude>
            <heading>270.0</heading>
            <tilt>50.0</tilt>
            <range>2000000.0</range>
            <altitudeMode>relativeToGround</altitudeMode>
          </LookAt>
        </gx:FlyTo>

        <!-- Landmark Approach: India Gate Landmark View (New Delhi, India) -->
        <gx:FlyTo>
          <gx:duration>3.0</gx:duration>
          <gx:flyToMode>smooth</gx:flyToMode>
          <Camera>
            <longitude>77.227000</longitude>
            <latitude>28.612900</latitude>
            <altitude>80.0</altitude>
            <heading>90.0</heading>
            <tilt>80.0</tilt>
            <roll>0.0</roll>
            <altitudeMode>relativeToGround</altitudeMode>
          </Camera>
        </gx:FlyTo>

        <!-- Partial Orbit Keyframe 1/6: India Gate Landmark View -->
        <gx:FlyTo>
          <gx:duration>2.5</gx:duration>
          <gx:flyToMode>smooth</gx:flyToMode>
          <Camera>
            <longitude>77.227151</longitude>
            <latitude>28.613651</latitude>
            <altitude>80.0</altitude>
            <heading>110.0</heading>
            <tilt>80.0</tilt>
            <roll>0.0</roll>
            <altitudeMode>relativeToGround</altitudeMode>
          </Camera>
        </gx:FlyTo>

        <!-- Partial Orbit Keyframe 2/6: India Gate Landmark View -->
        <gx:FlyTo>
          <gx:duration>2.5</gx:duration>
          <gx:flyToMode>smooth</gx:flyToMode>
          <Camera>
            <longitude>77.227585</longitude>
            <latitude>28.614311</latitude>
            <altitude>80.0</altitude>
            <heading>130.0</heading>
            <tilt>80.0</tilt>
            <roll>0.0</roll>
            <altitudeMode>relativeToGround</altitudeMode>
          </Camera>
        </gx:FlyTo>

        <!-- Partial Orbit Keyframe 3/6: India Gate Landmark View -->
        <gx:FlyTo>
          <gx:duration>2.5</gx:duration>
          <gx:flyToMode>smooth</gx:flyToMode>
          <Camera>
            <longitude>77.228250</longitude>
            <latitude>28.614801</latitude>
            <altitude>80.0</altitude>
            <heading>150.0</heading>
            <tilt>80.0</tilt>
            <roll>0.0</roll>
            <altitudeMode>relativeToGround</altitudeMode>
          </Camera>
        </gx:FlyTo>

        <!-- Partial Orbit Keyframe 4/6: India Gate Landmark View -->
        <gx:FlyTo>
          <gx:duration>2.5</gx:duration>
          <gx:flyToMode>smooth</gx:flyToMode>
          <Camera>
            <longitude>77.229066</longitude>
            <latitude>28.615061</latitude>
            <altitude>80.0</altitude>
            <heading>170.0</heading>
            <tilt>80.0</tilt>
            <roll>0.0</roll>
            <altitudeMode>relativeToGround</altitudeMode>
          </Camera>
        </gx:FlyTo>

        <!-- Partial Orbit Keyframe 5/6: India Gate Landmark View -->
        <gx:FlyTo>
          <gx:duration>2.5</gx:duration>
          <gx:flyToMode>smooth</gx:flyToMode>
          <Camera>
            <longitude>77.229934</longitude>
            <latitude>28.615061</latitude>
            <altitude>80.0</altitude>
            <heading>190.0</heading>
            <tilt>80.0</tilt>
            <roll>0.0</roll>
            <altitudeMode>relativeToGround</altitudeMode>
          </Camera>
        </gx:FlyTo>

        <!-- Partial Orbit Keyframe 6/6: India Gate Landmark View -->
        <gx:FlyTo>
          <gx:duration>2.5</gx:duration>
          <gx:flyToMode>smooth</gx:flyToMode>
          <Camera>
            <longitude>77.230750</longitude>
            <latitude>28.614801</latitude>
            <altitude>80.0</altitude>
            <heading>210.0</heading>
            <tilt>80.0</tilt>
            <roll>0.0</roll>
            <altitudeMode>relativeToGround</altitudeMode>
          </Camera>
        </gx:FlyTo>

        <!-- Final Settle Hold: India Gate Landmark View -->
        <gx:Wait>
          <gx:duration>3.0</gx:duration>
        </gx:Wait>

        <!-- Scientific Stop: South Asian Monsoon Conclusion -->
        <gx:FlyTo>
          <gx:duration>11.0</gx:duration>
          <gx:flyToMode>smooth</gx:flyToMode>
          <LookAt>
            <longitude>78.0</longitude>
            <latitude>20.0</latitude>
            <altitude>0.0</altitude>
            <heading>0.0</heading>
            <tilt>45.0</tilt>
            <range>5000000.0</range>
            <altitudeMode>relativeToGround</altitudeMode>
          </LookAt>
        </gx:FlyTo>

    </gx:Playlist>
  </gx:Tour>
</Document>
</kml>
