<?xml version="1.0" encoding="UTF-8"?>
<kml xmlns="http://www.opengis.net/kml/2.2"
     xmlns:gx="http://www.google.com/kml/ext/2.2"
     xmlns:kml="http://www.opengis.net/kml/2.2"
     xmlns:atom="http://www.w3.org/2005/Atom">
<Document>
  <name>Kuroshio Current Guided Tour</name>
  <open>1</open>
  <gx:Tour>
    <name>Kuroshio Current Guided Tour</name>
    <gx:Playlist>

        <!-- Scientific Stop: Western Pacific Overview -->
        <gx:FlyTo>
          <gx:duration>11.0</gx:duration>
          <gx:flyToMode>smooth</gx:flyToMode>
          <LookAt>
            <longitude>135.0</longitude>
            <latitude>28.0</latitude>
            <altitude>0.0</altitude>
            <heading>0.0</heading>
            <tilt>45.0</tilt>
            <range>6000000.0</range>
            <altitudeMode>relativeToGround</altitudeMode>
          </LookAt>
        </gx:FlyTo>

        <!-- Scientific Stop: Taiwan & Luzon Strait Origin -->
        <gx:FlyTo>
          <gx:duration>9.0</gx:duration>
          <gx:flyToMode>smooth</gx:flyToMode>
          <LookAt>
            <longitude>122.0</longitude>
            <latitude>22.0</latitude>
            <altitude>0.0</altitude>
            <heading>30.0</heading>
            <tilt>50.0</tilt>
            <range>1800000.0</range>
            <altitudeMode>relativeToGround</altitudeMode>
          </LookAt>
        </gx:FlyTo>

        <!-- Landmark Approach: Taipei 101 Landmark View (Taipei, Taiwan) -->
        <gx:FlyTo>
          <gx:duration>3.0</gx:duration>
          <gx:flyToMode>smooth</gx:flyToMode>
          <Camera>
            <longitude>121.562000</longitude>
            <latitude>25.031500</latitude>
            <altitude>150.0</altitude>
            <heading>43.3</heading>
            <tilt>80.0</tilt>
            <roll>0.0</roll>
            <altitudeMode>relativeToGround</altitudeMode>
          </Camera>
        </gx:FlyTo>

        <!-- Partial Orbit Keyframe 1/6: Taipei 101 Landmark View -->
        <gx:FlyTo>
          <gx:duration>2.5</gx:duration>
          <gx:flyToMode>smooth</gx:flyToMode>
          <Camera>
            <longitude>121.561245</longitude>
            <latitude>25.032419</latitude>
            <altitude>150.0</altitude>
            <heading>63.3</heading>
            <tilt>80.0</tilt>
            <roll>0.0</roll>
            <altitudeMode>relativeToGround</altitudeMode>
          </Camera>
        </gx:FlyTo>

        <!-- Partial Orbit Keyframe 2/6: Taipei 101 Landmark View -->
        <gx:FlyTo>
          <gx:duration>2.5</gx:duration>
          <gx:flyToMode>smooth</gx:flyToMode>
          <Camera>
            <longitude>121.560882</longitude>
            <latitude>25.033518</latitude>
            <altitude>150.0</altitude>
            <heading>83.3</heading>
            <tilt>80.0</tilt>
            <roll>0.0</roll>
            <altitudeMode>relativeToGround</altitudeMode>
          </Camera>
        </gx:FlyTo>

        <!-- Partial Orbit Keyframe 3/6: Taipei 101 Landmark View -->
        <gx:FlyTo>
          <gx:duration>2.5</gx:duration>
          <gx:flyToMode>smooth</gx:flyToMode>
          <Camera>
            <longitude>121.560956</longitude>
            <latitude>25.034662</latitude>
            <altitude>150.0</altitude>
            <heading>103.3</heading>
            <tilt>80.0</tilt>
            <roll>0.0</roll>
            <altitudeMode>relativeToGround</altitudeMode>
          </Camera>
        </gx:FlyTo>

        <!-- Partial Orbit Keyframe 4/6: Taipei 101 Landmark View -->
        <gx:FlyTo>
          <gx:duration>2.5</gx:duration>
          <gx:flyToMode>smooth</gx:flyToMode>
          <Camera>
            <longitude>121.561457</longitude>
            <latitude>25.035714</latitude>
            <altitude>150.0</altitude>
            <heading>123.3</heading>
            <tilt>80.0</tilt>
            <roll>0.0</roll>
            <altitudeMode>relativeToGround</altitudeMode>
          </Camera>
        </gx:FlyTo>

        <!-- Partial Orbit Keyframe 5/6: Taipei 101 Landmark View -->
        <gx:FlyTo>
          <gx:duration>2.5</gx:duration>
          <gx:flyToMode>smooth</gx:flyToMode>
          <Camera>
            <longitude>121.562326</longitude>
            <latitude>25.036548</latitude>
            <altitude>150.0</altitude>
            <heading>143.3</heading>
            <tilt>80.0</tilt>
            <roll>0.0</roll>
            <altitudeMode>relativeToGround</altitudeMode>
          </Camera>
        </gx:FlyTo>

        <!-- Partial Orbit Keyframe 6/6: Taipei 101 Landmark View -->
        <gx:FlyTo>
          <gx:duration>2.5</gx:duration>
          <gx:flyToMode>smooth</gx:flyToMode>
          <Camera>
            <longitude>121.563456</longitude>
            <latitude>25.037062</latitude>
            <altitude>150.0</altitude>
            <heading>163.3</heading>
            <tilt>80.0</tilt>
            <roll>0.0</roll>
            <altitudeMode>relativeToGround</altitudeMode>
          </Camera>
        </gx:FlyTo>

        <!-- Final Settle Hold: Taipei 101 Landmark View -->
        <gx:Wait>
          <gx:duration>3.0</gx:duration>
        </gx:Wait>

        <!-- Scientific Stop: Okinawa & East China Sea Path -->
        <gx:FlyTo>
          <gx:duration>9.0</gx:duration>
          <gx:flyToMode>smooth</gx:flyToMode>
          <LookAt>
            <longitude>128.0</longitude>
            <latitude>27.0</latitude>
            <altitude>0.0</altitude>
            <heading>45.0</heading>
            <tilt>55.0</tilt>
            <range>1800000.0</range>
            <altitudeMode>relativeToGround</altitudeMode>
          </LookAt>
        </gx:FlyTo>

        <!-- Scientific Stop: Kuroshio Extension off Japan & Tokyo -->
        <gx:FlyTo>
          <gx:duration>11.0</gx:duration>
          <gx:flyToMode>smooth</gx:flyToMode>
          <LookAt>
            <longitude>140.0</longitude>
            <latitude>35.0</latitude>
            <altitude>0.0</altitude>
            <heading>60.0</heading>
            <tilt>50.0</tilt>
            <range>2000000.0</range>
            <altitudeMode>relativeToGround</altitudeMode>
          </LookAt>
        </gx:FlyTo>

        <!-- Landmark Approach: Tokyo Tower Landmark View (Tokyo, Japan) -->
        <gx:FlyTo>
          <gx:duration>3.0</gx:duration>
          <gx:flyToMode>smooth</gx:flyToMode>
          <Camera>
            <longitude>139.742300</longitude>
            <latitude>35.657800</latitude>
            <altitude>90.0</altitude>
            <heading>72.4</heading>
            <tilt>95.0</tilt>
            <roll>0.0</roll>
            <altitudeMode>relativeToGround</altitudeMode>
          </Camera>
        </gx:FlyTo>

        <!-- Partial Orbit Keyframe 1/6: Tokyo Tower Landmark View -->
        <gx:FlyTo>
          <gx:duration>2.5</gx:duration>
          <gx:flyToMode>smooth</gx:flyToMode>
          <Camera>
            <longitude>139.742150</longitude>
            <latitude>35.658710</latitude>
            <altitude>90.0</altitude>
            <heading>92.4</heading>
            <tilt>95.0</tilt>
            <roll>0.0</roll>
            <altitudeMode>relativeToGround</altitudeMode>
          </Camera>
        </gx:FlyTo>

        <!-- Partial Orbit Keyframe 2/6: Tokyo Tower Landmark View -->
        <gx:FlyTo>
          <gx:duration>2.5</gx:duration>
          <gx:flyToMode>smooth</gx:flyToMode>
          <Camera>
            <longitude>139.742392</longitude>
            <latitude>35.659606</latitude>
            <altitude>90.0</altitude>
            <heading>112.4</heading>
            <tilt>95.0</tilt>
            <roll>0.0</roll>
            <altitudeMode>relativeToGround</altitudeMode>
          </Camera>
        </gx:FlyTo>

        <!-- Partial Orbit Keyframe 3/6: Tokyo Tower Landmark View -->
        <gx:FlyTo>
          <gx:duration>2.5</gx:duration>
          <gx:flyToMode>smooth</gx:flyToMode>
          <Camera>
            <longitude>139.742997</longitude>
            <latitude>35.660381</latitude>
            <altitude>90.0</altitude>
            <heading>132.4</heading>
            <tilt>95.0</tilt>
            <roll>0.0</roll>
            <altitudeMode>relativeToGround</altitudeMode>
          </Camera>
        </gx:FlyTo>

        <!-- Partial Orbit Keyframe 4/6: Tokyo Tower Landmark View -->
        <gx:FlyTo>
          <gx:duration>2.5</gx:duration>
          <gx:flyToMode>smooth</gx:flyToMode>
          <Camera>
            <longitude>139.743892</longitude>
            <latitude>35.660942</latitude>
            <altitude>90.0</altitude>
            <heading>152.4</heading>
            <tilt>95.0</tilt>
            <roll>0.0</roll>
            <altitudeMode>relativeToGround</altitudeMode>
          </Camera>
        </gx:FlyTo>

        <!-- Partial Orbit Keyframe 5/6: Tokyo Tower Landmark View -->
        <gx:FlyTo>
          <gx:duration>2.5</gx:duration>
          <gx:flyToMode>smooth</gx:flyToMode>
          <Camera>
            <longitude>139.744969</longitude>
            <latitude>35.661219</latitude>
            <altitude>90.0</altitude>
            <heading>172.4</heading>
            <tilt>95.0</tilt>
            <roll>0.0</roll>
            <altitudeMode>relativeToGround</altitudeMode>
          </Camera>
        </gx:FlyTo>

        <!-- Partial Orbit Keyframe 6/6: Tokyo Tower Landmark View -->
        <gx:FlyTo>
          <gx:duration>2.5</gx:duration>
          <gx:flyToMode>smooth</gx:flyToMode>
          <Camera>
            <longitude>139.746097</longitude>
            <latitude>35.661181</latitude>
            <altitude>90.0</altitude>
            <heading>192.4</heading>
            <tilt>95.0</tilt>
            <roll>0.0</roll>
            <altitudeMode>relativeToGround</altitudeMode>
          </Camera>
        </gx:FlyTo>

        <!-- Final Settle Hold: Tokyo Tower Landmark View -->
        <gx:Wait>
          <gx:duration>3.0</gx:duration>
        </gx:Wait>

        <!-- Scientific Stop: North Pacific Drift Outer Reach -->
        <gx:FlyTo>
          <gx:duration>9.0</gx:duration>
          <gx:flyToMode>smooth</gx:flyToMode>
          <LookAt>
            <longitude>158.0</longitude>
            <latitude>45.0</latitude>
            <altitude>0.0</altitude>
            <heading>75.0</heading>
            <tilt>45.0</tilt>
            <range>3500000.0</range>
            <altitudeMode>relativeToGround</altitudeMode>
          </LookAt>
        </gx:FlyTo>

        <!-- Scientific Stop: Western Pacific Conclusion -->
        <gx:FlyTo>
          <gx:duration>11.0</gx:duration>
          <gx:flyToMode>smooth</gx:flyToMode>
          <LookAt>
            <longitude>135.0</longitude>
            <latitude>28.0</latitude>
            <altitude>0.0</altitude>
            <heading>0.0</heading>
            <tilt>45.0</tilt>
            <range>6000000.0</range>
            <altitudeMode>relativeToGround</altitudeMode>
          </LookAt>
        </gx:FlyTo>

    </gx:Playlist>
  </gx:Tour>
</Document>
</kml>
