<?xml version="1.0" encoding="UTF-8"?>
<kml xmlns="http://www.opengis.net/kml/2.2"
     xmlns:gx="http://www.google.com/kml/ext/2.2"
     xmlns:kml="http://www.opengis.net/kml/2.2"
     xmlns:atom="http://www.w3.org/2005/Atom">
<Document>
  <name>Kuroshio Current Guided Tour</name>
  <open>1</open>
  <gx:Tour>
    <name>Kuroshio Current Guided Tour</name>
    <gx:Playlist>

        <!-- Stop: Western Pacific Overview -->
        <gx:FlyTo>
          <gx:duration>8.0</gx:duration>
          <gx:flyToMode>smooth</gx:flyToMode>
          <LookAt>
            <longitude>135.0</longitude>
            <latitude>28.0</latitude>
            <altitude>0.0</altitude>
            <heading>0.0</heading>
            <tilt>45.0</tilt>
            <range>6000000.0</range>
            <altitudeMode>relativeToGround</altitudeMode>
          </LookAt>
        </gx:FlyTo>

        <!-- Stop: Taiwan & Luzon Strait Origin -->
        <gx:FlyTo>
          <gx:duration>7.0</gx:duration>
          <gx:flyToMode>smooth</gx:flyToMode>
          <LookAt>
            <longitude>122.0</longitude>
            <latitude>22.0</latitude>
            <altitude>0.0</altitude>
            <heading>30.0</heading>
            <tilt>50.0</tilt>
            <range>1800000.0</range>
            <altitudeMode>relativeToGround</altitudeMode>
          </LookAt>
        </gx:FlyTo>

        <!-- Stop: Okinawa & East China Sea Path -->
        <gx:FlyTo>
          <gx:duration>7.0</gx:duration>
          <gx:flyToMode>smooth</gx:flyToMode>
          <LookAt>
            <longitude>128.0</longitude>
            <latitude>27.0</latitude>
            <altitude>0.0</altitude>
            <heading>45.0</heading>
            <tilt>55.0</tilt>
            <range>1800000.0</range>
            <altitudeMode>relativeToGround</altitudeMode>
          </LookAt>
        </gx:FlyTo>

        <!-- Stop: Kuroshio Extension off Japan & Tokyo -->
        <gx:FlyTo>
          <gx:duration>7.0</gx:duration>
          <gx:flyToMode>smooth</gx:flyToMode>
          <LookAt>
            <longitude>140.0</longitude>
            <latitude>35.0</latitude>
            <altitude>0.0</altitude>
            <heading>60.0</heading>
            <tilt>50.0</tilt>
            <range>2000000.0</range>
            <altitudeMode>relativeToGround</altitudeMode>
          </LookAt>
        </gx:FlyTo>

        <!-- Stop: North Pacific Drift Outer Reach -->
        <gx:FlyTo>
          <gx:duration>7.0</gx:duration>
          <gx:flyToMode>smooth</gx:flyToMode>
          <LookAt>
            <longitude>158.0</longitude>
            <latitude>45.0</latitude>
            <altitude>0.0</altitude>
            <heading>75.0</heading>
            <tilt>45.0</tilt>
            <range>3500000.0</range>
            <altitudeMode>relativeToGround</altitudeMode>
          </LookAt>
        </gx:FlyTo>

    </gx:Playlist>
  </gx:Tour>
</Document>
</kml>
